satname,norad_id,inclination_deg,eccentricity,mean_motion_rev_per_day,perigee_km,apogee_km,l1,l2
STARLINK-1167,45071,53.0534,0.0001352,15.06421857,546.2082721229335,548.0808682595125,1 45071U 20006AD  25285.17264409  .00006882  00000+0  48016-3 0  9995,2 45071  53.0534 213.3387 0001352  98.7547 261.3595 15.06421857314353
STARLINK-1168,45072,53.0537,0.0001001,15.06410253,546.4869099030848,547.8733583933417,1 45072U 20006AE  25285.50806553  .00002743  00000+0  20293-3 0  9994,2 45072  53.0537 211.8305 0001001  86.3961 273.7142 15.06410253314403
STARLINK-1172,45074,53.0546,0.0002555,15.06401245,545.4383166135876,548.9771677768485,1 45074U 20006AG  25285.51912817 -.00005967  00000+0 -38192-3 0  9998,2 45074  53.0546 211.7807 0002555  81.1383 278.9896 15.06401245314401
STARLINK-1153,45080,53.0535,0.0001388,15.06419366,546.1909744317609,548.11343471495,1 45080U 20006AN  25285.09892664  .00004455  00000+0  31762-3 0  9990,2 45080  53.0535 213.6698 0001388  95.6451 264.4696 15.06419366314348
STARLINK-1151,45081,53.0552,0.0001609,15.06416694,546.0461133545114,548.2746740558059,1 45081U 20006AP  25285.21687866  .00002206  00000+0  16685-3 0  9990,2 45081  53.0552 213.2134 0001609 105.6486 254.4680 15.06416694314360
STARLINK-1190,45083,53.044,0.0007063,15.80850832,323.29676223110346,332.7698984397366,1 45083U 20006AR  25285.66668981  .00284711  00000+0  13986-2 0  9991,2 45083  53.0440 172.5503 0007063 123.1793 195.7720 15.80850832  5942
STARLINK-1173,45084,53.0389,7.85e-05,15.97224026,281.60173051281436,282.6473915778988,1 45084U 20006AS  25285.66668981  .00416519  82439-4  93402-3 0  9998,2 45084  53.0389 134.4787 0000785  56.1836  17.0734 15.97224026  6022
STARLINK-1185,45087,53.0536,0.0001979,15.06408841,545.8139405618713,548.5549827964041,1 45087U 20006AV  25285.45831243  .00004476  00000+0  31913-3 0  9994,2 45087  53.0536 192.0533 0001979  77.4710 282.6500 15.06408841314685
STARLINK-1183,45088,53.0546,0.000127,15.06428604,546.2443840518881,548.0034003185028,1 45088U 20006AW  25285.01599699  .00008508  00000+0  58892-3 0  9998,2 45088  53.0546 194.0415 0001270  92.3702 267.7433 15.06428604314610
STARLINK-1176,45090,53.044,0.0001495,15.93499836,291.500454766503,293.4949745461854,1 45090U 20006AY  25285.66668981  .00347364  57765-4  95392-3 0  9990,2 45090  53.0440 132.6710 0001495 308.4677  60.4348 15.93499836  6019
STARLINK-1142,45093,53.0351,0.0004015,15.55510446,397.9475409212928,403.39092232528674,1 45093U 20006BB  25285.60249339  .00122991  00000+0  17477-2 0  9998,2 45093  53.0351 131.6838 0004015 166.4415 193.6704 15.55510446315541
STARLINK-1147,45095,53.0305,0.0003794,16.17104435,224.91919405479894,229.93149476173585,1 45095U 20006BD  25285.57184458  .01350514  14390-2  87166-3 0  9994,2 45095  53.0305 127.5436 0003794 267.1570  92.9033 16.17104435315591
STARLINK-1152,45096,53.049,0.0008938,15.22479287,492.21887387130573,504.51130900996577,1 45096U 20006BE  25285.10360953 -.00002760  00000+0 -10328-3 0  9994,2 45096  53.0490 178.1421 0008938 106.9193 253.2783 15.22479287314845
STARLINK-1184,45098,53.0535,0.0001431,15.06449282,546.0695240587793,548.0515155889525,1 45098U 20006BG  25285.16342639  .00017577  00000+0  11944-2 0  9997,2 45098  53.0535 193.3786 0001431  86.6217 273.4936 15.06449282314637
STARLINK-1193,45100,53.0532,0.0001394,15.06416794,546.1947008112784,548.1254736391957,1 45100U 20006BJ  25285.02704878  .00018506  00000+0  12575-2 0  9997,2 45100  53.0532 193.9903 0001394  81.3443 278.7704 15.06416794314617
STARLINK-1143,45179,53.056,0.0006305,15.37536537,449.08936085429195,457.703924777883,1 45179U 20012B   25285.36126305  .00097950  00000+0  25965-2 0  9997,2 45179  53.0560 320.5939 0006305 329.4183  30.6452 15.37536537312935
STARLINK-1202,45183,53.0569,0.0001572,15.06392535,546.1457687926786,548.3231055725291,1 45183U 20012F   25285.48780097  .00002654  00000+0  19701-3 0  9998,2 45183  53.0569 351.9275 0001572 103.9058 256.2106 15.06392535312506
STARLINK-1216,45185,53.0559,0.0001385,15.06397929,546.2587436078911,548.1770669166499,1 45185U 20012H   25285.48042761  .00003030  00000+0  22223-3 0  9991,2 45185  53.0559 351.9551 0001385  93.9505 266.1642 15.06397929312441
STARLINK-1225,45187,53.0559,0.0001175,15.06401746,546.3924788781278,548.0199345317033,1 45187U 20012K   25285.49886002  .00005719  00000+0  40250-3 0  9994,2 45187  53.0559 351.8747 0001175  92.4363 267.6760 15.06401746312497
STARLINK-1230,45189,53.0551,0.0001496,15.06395394,546.189640444727,548.2617089569985,1 45189U 20012M   25285.50254742  .00004413  00000+0  31498-3 0  9992,2 45189  53.0551 351.8589 0001496  88.2756 271.8405 15.06395394309726
STARLINK-1234,45190,53.054,0.0001221,15.12725561,527.0489862291406,528.7354385628087,1 45190U 20012N   25285.66668981  .01038254  00000+0  54304-1 0  9995,2 45190  53.0540 311.0455 0001221  86.6673  23.3746 15.12725561  5767
STARLINK-1269,45197,53.0543,0.0001366,15.06397452,546.2733635225459,548.1653708820659,1 45197U 20012V   25285.44726288  .00007302  00000+0  50861-3 0  9998,2 45197  53.0543 352.1096 0001366  93.3244 266.7901 15.06397452312464
STARLINK-1154,45198,53.056,0.0001771,15.06396675,545.9952675687564,548.4482296375108,1 45198U 20012W   25285.50439330  .00001889  00000+0  14570-3 0  9996,2 45198  53.0560 331.8518 0001771  95.8422 264.2769 15.06396675312722
STARLINK-1199,45201,53.0547,0.0001297,15.0640008,546.3130950736459,548.1095304259734,1 45201U 20012Z   25285.51545046  .00004414  00000+0  31502-3 0  9995,2 45201  53.0547 331.8001 0001297  85.4323 274.6815 15.06400080312786
STARLINK-1209,45206,53.0546,0.0003407,15.06810759,543.5938893197153,548.3119641958083,1 45206U 20012AE  25284.79469304  .00166738  00000+0  10830-1 0  9998,2 45206  53.0546 315.0358 0003407 188.8666 171.2264 15.06810759312005
STARLINK-1210,45207,53.0267,0.0013389,15.51808749,402.3545245823243,420.53566751912876,1 45207U 20012AF  25285.66668981 -.00015169  00000+0 -24124-3 0  9994,2 45207  53.0267 277.3798 0013389 348.4359  47.5220 15.51808749  5920
STARLINK-1231,45212,53.0523,0.000367,15.10679466,531.5897824984786,536.6633839685728,1 45212U 20012AL  25285.39642407  .00042652  00000+0  25494-2 0  9990,2 45212  53.0523 331.3516 0003670 320.4427  39.6296 15.10679466312730
STARLINK-1271,45217,53.0571,0.0001494,15.06392905,546.1986528534635,548.2679535000516,1 45217U 20012AR  25285.43436157  .00000349  00000+0  42325-4 0  9994,2 45217  53.0571 332.1643 0001494  89.3822 270.7339 15.06392905312775
STARLINK-1191,45222,53.0542,0.0001263,15.06403091,546.3274141582924,548.0767548110334,1 45222U 20012AW  25285.37721641 -.00001976  00000+0 -11378-3 0  9990,2 45222  53.0542 312.4184 0001263  87.4491 272.6642 15.06403091313043
STARLINK-1212,45223,53.054,0.0001268,15.06408221,546.3082308696212,548.0644928741922,1 45223U 20012AX  25285.46208481  .00006227  00000+0  43645-3 0  9997,2 45223  53.0540 312.6937 0001268  91.5874 268.5260 15.06408221313057
STARLINK-1215,45225,53.0545,0.0001396,15.06401112,546.2413716376168,548.1749280034464,1 45225U 20012AZ  25285.48411751  .00000692  00000+0  65348-4 0  9992,2 45225  53.0545 311.9402 0001396  91.4993 268.6156 15.06401112313019
STARLINK-1217,45226,53.0364,0.000173,16.08448935,249.95483142475769,252.2485480114001,1 45226U 20012BA  25285.36590315  .00849120  40243-3  97645-3 0  9992,2 45226  53.0364 249.6033 0001730 146.1021 214.0123 16.08448935313834
STARLINK-1221,45227,53.0677,0.0001697,15.35957029,456.9192258423518,459.2394376653501,1 45227U 20012BB  25285.19437275  .00021406  00000+0  61183-3 0  9999,2 45227  53.0677 250.1124 0001697 271.7806  88.3001 15.35957029313844
STARLINK-1222,45228,53.0546,0.0001423,15.06395122,546.2410291188216,548.2119875732978,1 45228U 20012BC  25285.45094543  .00003217  00000+0  23480-3 0  9994,2 45228  53.0546 312.0884 0001423  94.9958 265.1193 15.06395122312946
STARLINK-1226,45229,53.054,0.0001423,15.06403997,546.213832379447,548.1847830926299,1 45229U 20012BD  25285.34773520  .00001553  00000+0  12312-3 0  9995,2 45229  53.0540 312.5508 0001423  84.4678 275.6474 15.06403997312939
STARLINK-1227,45230,53.0545,0.0001469,15.06396562,546.2047596821094,548.2394301842014,1 45230U 20012BE  25285.47674733  .00003584  00000+0  25940-3 0  9994,2 45230  53.0545 311.9724 0001469  82.3926 277.7230 15.06396562313070
STARLINK-1246,45235,53.0555,0.0001345,15.06397963,546.2863408361882,548.1492612776719,1 45235U 20012BK  25285.49148950  .00003914  00000+0  28152-3 0  9993,2 45235  53.0555 351.9066 0001345  88.6555 271.4589 15.06397963312522
STARLINK-1270,45237,53.0556,0.0001502,15.06399545,546.1727648852384,548.2531400109538,1 45237U 20012BM  25285.36247538 -.00000714  00000+0 -29032-4 0  9999,2 45237  53.0556 312.4850 0001502  93.7843 266.3318 15.06399545313049
STARLINK-1279,45360,53.054,0.0001271,15.0876517,539.0928321215988,540.8514154608665,1 45360U 20019A   25285.66668981  .02111973  00000+0  12079+0 0  9993,2 45360  53.0540  81.1065 0001271  84.9931 357.1477 15.08765170  5811
STARLINK-1301,45361,53.0537,0.0001796,15.10445986,533.5973117554713,536.0804526923666,1 45361U 20019B   25285.66668981  .02138207  00000+0  11668+0 0  9996,2 45361  53.0537  91.0871 0001796  92.6768  64.9602 15.10445986  5657
STARLINK-1306,45362,53.0492,0.0006908,15.62932315,374.5239834585054,383.859909130706,1 45362U 20019C   25285.66668981  .00164281  00000+0  17501-2 0  9991,2 45362  53.0492  86.4722 0006908 180.6091 359.6073 15.62932315  5951
STARLINK-1262,45366,53.0529,0.0001271,15.06396046,546.3434630633328,548.1038897472754,1 45366U 20019G   25285.60576663  .00003381  00000+0  24579-3 0  9991,2 45366  53.0529 111.3899 0001271  73.1300 286.9828 15.06396046307415
STARLINK-1273,45367,53.052,0.000139,15.06395568,546.2625160755997,548.1877667509116,1 45367U 20019H   25285.56152302 -.00000334  00000+0 -35251-5 0  9995,2 45367  53.0520 111.5910 0001390  91.7015 268.4133 15.06395568307405
